[{"OBJECT_NAME":"STARLINK-4538","OBJECT_ID":"2022-097AU","EPOCH":"2026-03-09T21:22:51.438432","MEAN_MOTION":15.08837222,"ECCENTRICITY":0.00011952,"INCLINATION":53.2163,"RA_OF_ASC_NODE":103.2564,"ARG_OF_PERICENTER":78.151,"MEAN_ANOMALY":281.9616,"EPHEMERIS_TYPE":0,"CLASSIFICATION_TYPE":"U","NORAD_CAT_ID":53430,"ELEMENT_SET_NO":999,"REV_AT_EPOCH":19879,"BSTAR":1.098682e-6,"MEAN_MOTION_DOT":-2.7e-6,"MEAN_MOTION_DDOT":0},{"OBJECT_NAME":"CZ-4B DEB","OBJECT_ID":"2006-015C","EPOCH":"2026-03-08T07:50:56.789952","MEAN_MOTION":14.91364963,"ECCENTRICITY":0.00849927,"INCLINATION":97.8628,"RA_OF_ASC_NODE":27.0975,"ARG_OF_PERICENTER":296.8782,"MEAN_ANOMALY":62.3767,"EPHEMERIS_TYPE":0,"CLASSIFICATION_TYPE":"U","NORAD_CAT_ID":29536,"ELEMENT_SET_NO":999,"REV_AT_EPOCH":4888,"BSTAR":0.0026311155,"MEAN_MOTION_DOT":0.00028164,"MEAN_MOTION_DDOT":0}]
